CZ-2D R/B               
1 28738U 05024B   25328.03032257  .00028147  00000+0  46920-3 0  9996
2 28738  97.3643 335.0053 0007936  60.7119 299.4926 15.51925590123357
ALOS (DAICHI)           
1 28931U 06002A   25328.44628373  .00001696  00000+0  29496-3 0  9992
2 28931  98.1068 280.0664 0000752  72.8779 287.2509 14.69402321 58027
H-2A R/B                
1 28932U 06002B   25328.34927113  .00009940  00000+0  53120-3 0  9997
2 28932  98.2314 101.6055 0054394 238.9093 120.6793 15.14035959 78487
RESURS-DK 1             
1 29228U 06021A   25327.91060502  .00003182  00000+0  19097-3 0  9996
2 29228  69.9304 150.4910 0007368 273.1810  86.8513 15.12000318 71530
CZ-4B R/B               
1 29507U 06046C   25328.08635228  .00005226  00000+0  27524-3 0  9990
2 29507  97.5753   8.2761 0032584 273.4989  86.2516 15.15600238 44040
CZ-2C R/B               
1 31114U 07010B   25328.33050852  .00000198  00000+0  11027-3 0  9995
2 31114  98.3970  81.9086 0058071 239.9616 119.5793 14.20198469964768
COSMO-SKYMED 1          
1 31598U 07023A   25328.52411654  .00004032  00000+0  36882-3 0  9994
2 31598  97.8840 153.8061 0001277  91.6387 268.4980 14.95565173999177
COSMOS 2428             
1 31792U 07029A   25328.40169514 -.00000124  00000+0 -40754-4 0  9992
2 31792  70.9371  64.3799 0002676  53.4039 306.7328 14.12886719949226
SL-16 R/B               
1 31793U 07029B   25328.36232240  .00000046  00000+0  48495-4 0  9996
2 31793  70.9778  33.7877 0002345 265.3292 165.8212 14.14816797950479
KORONAS-FOTON           
1 33504U 09003A   25328.44140903  .00014370  00000+0  35118-3 0  9997
2 33504  82.4321  25.0562 0011905 169.0597 191.0910 15.40610855929523
CZ-2C R/B               
1 37731U 11030B   25328.49497355  .00001898  00000+0  24740-3 0  9997
2 37731  97.8390 283.0092 0052380 334.3930 139.8858 14.80807006774527
H-2A R/B                
1 38341U 12025E   25328.42680338  .00004454  00000+0  41355-3 0  9990
2 38341  98.4577 282.2497 0043791 298.3030  61.3773 14.94265692732494
