CCSDS_OMM_VERS = 2.0
CREATION_DATE  = 
ORIGINATOR     = 

OBJECT_NAME    = CZ-2D R/B
OBJECT_ID      = 2005-024B
CENTER_NAME    = EARTH
REF_FRAME      = TEME
TIME_SYSTEM    = UTC
MEAN_ELEMENT_THEORY = SGP/SGP4

EPOCH          = 2025-11-24T00:43:39.870048
MEAN_MOTION    = 15.51925590
ECCENTRICITY   = .0007936
INCLINATION    = 97.3643
RA_OF_ASC_NODE = 335.0053
ARG_OF_PERICENTER = 60.7119
MEAN_ANOMALY   = 299.4926

EPHEMERIS_TYPE = 0
CLASSIFICATION_TYPE = U
NORAD_CAT_ID   = 28738
ELEMENT_SET_NO = 999
REV_AT_EPOCH   = 12335
BSTAR          = .4692E-3
MEAN_MOTION_DOT = .28147E-3
MEAN_MOTION_DDOT = 0

CCSDS_OMM_VERS = 2.0
CREATION_DATE  = 
ORIGINATOR     = 

OBJECT_NAME    = ALOS (DAICHI)
OBJECT_ID      = 2006-002A
CENTER_NAME    = EARTH
REF_FRAME      = TEME
TIME_SYSTEM    = UTC
MEAN_ELEMENT_THEORY = SGP/SGP4

EPOCH          = 2025-11-24T10:42:38.914272
MEAN_MOTION    = 14.69402321
ECCENTRICITY   = .0000752
INCLINATION    = 98.1068
RA_OF_ASC_NODE = 280.0664
ARG_OF_PERICENTER = 72.8779
MEAN_ANOMALY   = 287.2509

EPHEMERIS_TYPE = 0
CLASSIFICATION_TYPE = U
NORAD_CAT_ID   = 28931
ELEMENT_SET_NO = 999
REV_AT_EPOCH   = 5802
BSTAR          = .29496E-3
MEAN_MOTION_DOT = .1696E-4
MEAN_MOTION_DDOT = 0

CCSDS_OMM_VERS = 2.0
CREATION_DATE  = 
ORIGINATOR     = 

OBJECT_NAME    = H-2A R/B
OBJECT_ID      = 2006-002B
CENTER_NAME    = EARTH
REF_FRAME      = TEME
TIME_SYSTEM    = UTC
MEAN_ELEMENT_THEORY = SGP/SGP4

EPOCH          = 2025-11-24T08:22:57.025632
MEAN_MOTION    = 15.14035959
ECCENTRICITY   = .0054394
INCLINATION    = 98.2314
RA_OF_ASC_NODE = 101.6055
ARG_OF_PERICENTER = 238.9093
MEAN_ANOMALY   = 120.6793

EPHEMERIS_TYPE = 0
CLASSIFICATION_TYPE = U
NORAD_CAT_ID   = 28932
ELEMENT_SET_NO = 999
REV_AT_EPOCH   = 7848
BSTAR          = .5312E-3
MEAN_MOTION_DOT = .994E-4
MEAN_MOTION_DDOT = 0

CCSDS_OMM_VERS = 2.0
CREATION_DATE  = 
ORIGINATOR     = 

OBJECT_NAME    = RESURS-DK 1
OBJECT_ID      = 2006-021A
CENTER_NAME    = EARTH
REF_FRAME      = TEME
TIME_SYSTEM    = UTC
MEAN_ELEMENT_THEORY = SGP/SGP4

EPOCH          = 2025-11-23T21:51:16.272864
MEAN_MOTION    = 15.12000318
ECCENTRICITY   = .0007368
INCLINATION    = 69.9304
RA_OF_ASC_NODE = 150.4910
ARG_OF_PERICENTER = 273.1810
MEAN_ANOMALY   = 86.8513

EPHEMERIS_TYPE = 0
CLASSIFICATION_TYPE = U
NORAD_CAT_ID   = 29228
ELEMENT_SET_NO = 999
REV_AT_EPOCH   = 7153
BSTAR          = .19097E-3
MEAN_MOTION_DOT = .3182E-4
MEAN_MOTION_DDOT = 0

CCSDS_OMM_VERS = 2.0
CREATION_DATE  = 
ORIGINATOR     = 

OBJECT_NAME    = CZ-4B R/B
OBJECT_ID      = 2006-046C
CENTER_NAME    = EARTH
REF_FRAME      = TEME
TIME_SYSTEM    = UTC
MEAN_ELEMENT_THEORY = SGP/SGP4

EPOCH          = 2025-11-24T02:04:20.836128
MEAN_MOTION    = 15.15600238
ECCENTRICITY   = .0032584
INCLINATION    = 97.5753
RA_OF_ASC_NODE = 8.2761
ARG_OF_PERICENTER = 273.4989
MEAN_ANOMALY   = 86.2516

EPHEMERIS_TYPE = 0
CLASSIFICATION_TYPE = U
NORAD_CAT_ID   = 29507
ELEMENT_SET_NO = 999
REV_AT_EPOCH   = 4404
BSTAR          = .27524E-3
MEAN_MOTION_DOT = .5226E-4
MEAN_MOTION_DDOT = 0

CCSDS_OMM_VERS = 2.0
CREATION_DATE  = 
ORIGINATOR     = 

OBJECT_NAME    = CZ-2C R/B
OBJECT_ID      = 2007-010B
CENTER_NAME    = EARTH
REF_FRAME      = TEME
TIME_SYSTEM    = UTC
MEAN_ELEMENT_THEORY = SGP/SGP4

EPOCH          = 2025-11-24T07:55:55.936128
MEAN_MOTION    = 14.20198469
ECCENTRICITY   = .0058071
INCLINATION    = 98.3970
RA_OF_ASC_NODE = 81.9086
ARG_OF_PERICENTER = 239.9616
MEAN_ANOMALY   = 119.5793

EPHEMERIS_TYPE = 0
CLASSIFICATION_TYPE = U
NORAD_CAT_ID   = 31114
ELEMENT_SET_NO = 999
REV_AT_EPOCH   = 96476
BSTAR          = .11027E-3
MEAN_MOTION_DOT = .198E-5
MEAN_MOTION_DDOT = 0

CCSDS_OMM_VERS = 2.0
CREATION_DATE  = 
ORIGINATOR     = 

OBJECT_NAME    = COSMO-SKYMED 1
OBJECT_ID      = 2007-023A
CENTER_NAME    = EARTH
REF_FRAME      = TEME
TIME_SYSTEM    = UTC
MEAN_ELEMENT_THEORY = SGP/SGP4

EPOCH          = 2025-11-24T12:34:43.669056
MEAN_MOTION    = 14.95565173
ECCENTRICITY   = .0001277
INCLINATION    = 97.8840
RA_OF_ASC_NODE = 153.8061
ARG_OF_PERICENTER = 91.6387
MEAN_ANOMALY   = 268.4980

EPHEMERIS_TYPE = 0
CLASSIFICATION_TYPE = U
NORAD_CAT_ID   = 31598
ELEMENT_SET_NO = 999
REV_AT_EPOCH   = 99917
BSTAR          = .36882E-3
MEAN_MOTION_DOT = .4032E-4
MEAN_MOTION_DDOT = 0

CCSDS_OMM_VERS = 2.0
CREATION_DATE  = 
ORIGINATOR     = 

OBJECT_NAME    = COSMOS 2428
OBJECT_ID      = 2007-029A
CENTER_NAME    = EARTH
REF_FRAME      = TEME
TIME_SYSTEM    = UTC
MEAN_ELEMENT_THEORY = SGP/SGP4

EPOCH          = 2025-11-24T09:38:26.460096
MEAN_MOTION    = 14.12886719
ECCENTRICITY   = .0002676
INCLINATION    = 70.9371
RA_OF_ASC_NODE = 64.3799
ARG_OF_PERICENTER = 53.4039
MEAN_ANOMALY   = 306.7328

EPHEMERIS_TYPE = 0
CLASSIFICATION_TYPE = U
NORAD_CAT_ID   = 31792
ELEMENT_SET_NO = 999
REV_AT_EPOCH   = 94922
BSTAR          = -.40754E-4
MEAN_MOTION_DOT = -.124E-5
MEAN_MOTION_DDOT = 0

CCSDS_OMM_VERS = 2.0
CREATION_DATE  = 
ORIGINATOR     = 

OBJECT_NAME    = SL-16 R/B
OBJECT_ID      = 2007-029B
CENTER_NAME    = EARTH
REF_FRAME      = TEME
TIME_SYSTEM    = UTC
MEAN_ELEMENT_THEORY = SGP/SGP4

EPOCH          = 2025-11-24T08:41:44.655360
MEAN_MOTION    = 14.14816797
ECCENTRICITY   = .0002345
INCLINATION    = 70.9778
RA_OF_ASC_NODE = 33.7877
ARG_OF_PERICENTER = 265.3292
MEAN_ANOMALY   = 165.8212

EPHEMERIS_TYPE = 0
CLASSIFICATION_TYPE = U
NORAD_CAT_ID   = 31793
ELEMENT_SET_NO = 999
REV_AT_EPOCH   = 95047
BSTAR          = .48495E-4
MEAN_MOTION_DOT = .46E-6
MEAN_MOTION_DDOT = 0

CCSDS_OMM_VERS = 2.0
CREATION_DATE  = 
ORIGINATOR     = 

OBJECT_NAME    = KORONAS-FOTON
OBJECT_ID      = 2009-003A
CENTER_NAME    = EARTH
REF_FRAME      = TEME
TIME_SYSTEM    = UTC
MEAN_ELEMENT_THEORY = SGP/SGP4

EPOCH          = 2025-11-24T10:35:37.740192
MEAN_MOTION    = 15.40610855
ECCENTRICITY   = .0011905
INCLINATION    = 82.4321
RA_OF_ASC_NODE = 25.0562
ARG_OF_PERICENTER = 169.0597
MEAN_ANOMALY   = 191.0910

EPHEMERIS_TYPE = 0
CLASSIFICATION_TYPE = U
NORAD_CAT_ID   = 33504
ELEMENT_SET_NO = 999
REV_AT_EPOCH   = 92952
BSTAR          = .35118E-3
MEAN_MOTION_DOT = .1437E-3
MEAN_MOTION_DDOT = 0

CCSDS_OMM_VERS = 2.0
CREATION_DATE  = 
ORIGINATOR     = 

OBJECT_NAME    = CZ-2C R/B
OBJECT_ID      = 2011-030B
CENTER_NAME    = EARTH
REF_FRAME      = TEME
TIME_SYSTEM    = UTC
MEAN_ELEMENT_THEORY = SGP/SGP4

EPOCH          = 2025-11-24T11:52:45.714720
MEAN_MOTION    = 14.80807006
ECCENTRICITY   = .005238
INCLINATION    = 97.8390
RA_OF_ASC_NODE = 283.0092
ARG_OF_PERICENTER = 334.3930
MEAN_ANOMALY   = 139.8858

EPHEMERIS_TYPE = 0
CLASSIFICATION_TYPE = U
NORAD_CAT_ID   = 37731
ELEMENT_SET_NO = 999
REV_AT_EPOCH   = 77452
BSTAR          = .2474E-3
MEAN_MOTION_DOT = .1898E-4
MEAN_MOTION_DDOT = 0

CCSDS_OMM_VERS = 2.0
CREATION_DATE  = 
ORIGINATOR     = 

OBJECT_NAME    = H-2A R/B
OBJECT_ID      = 2012-025E
CENTER_NAME    = EARTH
REF_FRAME      = TEME
TIME_SYSTEM    = UTC
MEAN_ELEMENT_THEORY = SGP/SGP4

EPOCH          = 2025-11-24T10:14:35.812032
MEAN_MOTION    = 14.94265692
ECCENTRICITY   = .0043791
INCLINATION    = 98.4577
RA_OF_ASC_NODE = 282.2497
ARG_OF_PERICENTER = 298.3030
MEAN_ANOMALY   = 61.3773

EPHEMERIS_TYPE = 0
CLASSIFICATION_TYPE = U
NORAD_CAT_ID   = 38341
ELEMENT_SET_NO = 999
REV_AT_EPOCH   = 73249
BSTAR          = .41355E-3
MEAN_MOTION_DOT = .4454E-4
MEAN_MOTION_DDOT = 0

